{
    "links": {
        "self": "http://www.neowsapp.com/rest/v1/neo/3753027?api_key=iIulBulltgU6a56xZRHN4H3l9WmuAYTsLGpBGhQ2"
    },
    "id": "3753027",
    "neo_reference_id": "3753027",
    "name": "(2016 JP17)",
    "designation": "2016 JP17",
    "nasa_jpl_url": "http://ssd.jpl.nasa.gov/sbdb.cgi?sstr=3753027",
    "absolute_magnitude_h": 23.1,
    "estimated_diameter": {
        "kilometers": {
            "estimated_diameter_min": 0.063760979,
            "estimated_diameter_max": 0.1425738833
        },
        "meters": {
            "estimated_diameter_min": 63.7609789875,
            "estimated_diameter_max": 142.5738833281
        },
        "miles": {
            "estimated_diameter_min": 0.0396192233,
            "estimated_diameter_max": 0.0885912765
        },
        "feet": {
            "estimated_diameter_min": 209.1895703015,
            "estimated_diameter_max": 467.7620993781
        }
    },
    "is_potentially_hazardous_asteroid": false,
    "close_approach_data": [
        {
            "close_approach_date": "1992-10-11",
            "close_approach_date_full": "1992-Oct-11 05:47",
            "epoch_date_close_approach": 718782420000,
            "relative_velocity": {
                "kilometers_per_second": "12.7613598217",
                "kilometers_per_hour": "45940.8953580584",
                "miles_per_hour": "28545.8857851225"
            },
            "miss_distance": {
                "astronomical": "0.097140824",
                "lunar": "37.787780536",
                "kilometers": "14532060.36044488",
                "miles": "9029803.590424144"
            },
            "orbiting_body": "Mars"
        },
        {
            "close_approach_date": "1992-12-23",
            "close_approach_date_full": "1992-Dec-23 23:01",
            "epoch_date_close_approach": 725151660000,
            "relative_velocity": {
                "kilometers_per_second": "21.8325105298",
                "kilometers_per_hour": "78597.0379072346",
                "miles_per_hour": "48837.1428040814"
            },
            "miss_distance": {
                "astronomical": "0.380081617",
                "lunar": "147.851749013",
                "kilometers": "56859400.32935579",
                "miles": "35330793.054018302"
            },
            "orbiting_body": "Earth"
        },
        {
            "close_approach_date": "1997-06-04",
            "close_approach_date_full": "1997-Jun-04 08:58",
            "epoch_date_close_approach": 865414680000,
            "relative_velocity": {
                "kilometers_per_second": "24.071075274",
                "kilometers_per_hour": "86655.8709865696",
                "miles_per_hour": "53844.588280516"
            },
            "miss_distance": {
                "astronomical": "0.4500316537",
                "lunar": "175.0623132893",
                "kilometers": "67323776.826097619",
                "miles": "41833055.0951963822"
            },
            "orbiting_body": "Earth"
        },
        {
            "close_approach_date": "2014-01-04",
            "close_approach_date_full": "2014-Jan-04 10:14",
            "epoch_date_close_approach": 1388830440000,
            "relative_velocity": {
                "kilometers_per_second": "15.5872829718",
                "kilometers_per_hour": "56114.2186984595",
                "miles_per_hour": "34867.1932796067"
            },
            "miss_distance": {
                "astronomical": "0.1901038234",
                "lunar": "73.9503873026",
                "kilometers": "28439127.059496158",
                "miles": "17671254.1278286604"
            },
            "orbiting_body": "Earth"
        },
        {
            "close_approach_date": "2016-05-08",
            "close_approach_date_full": "2016-May-08 06:45",
            "epoch_date_close_approach": 1462689900000,
            "relative_velocity": {
                "kilometers_per_second": "11.5942731102",
                "kilometers_per_hour": "41739.3831967495",
                "miles_per_hour": "25935.2295202247"
            },
            "miss_distance": {
                "astronomical": "0.0310078665",
                "lunar": "12.0620600685",
                "kilometers": "4638710.781644355",
                "miles": "2882361.222847899"
            },
            "orbiting_body": "Earth"
        }
    ],
    "orbital_data": {
        "orbit_id": "20",
        "orbit_determination_date": "2017-04-06 08:26:02",
        "first_observation_date": "2016-05-07",
        "last_observation_date": "2016-06-06",
        "data_arc_in_days": 30,
        "observations_used": 225,
        "orbit_uncertainty": "7",
        "minimum_orbit_intersection": ".0290728",
        "jupiter_tisserand_invariant": "4.152",
        "epoch_osculation": "2459000.5",
        "eccentricity": ".4691716997220415",
        "semi_major_axis": "1.642652645438204",
        "inclination": "7.385816010324573",
        "ascending_node_longitude": "58.54046659052802",
        "orbital_period": "768.9835207752126",
        "perihelion_distance": ".8719665117250537",
        "perihelion_argument": "111.0978169245778",
        "aphelion_distance": "2.413338779151353",
        "perihelion_time": "2459010.865623182604",
        "mean_anomaly": "355.1473285903764",
        "mean_motion": ".4681504743262688",
        "equinox": "J2000",
        "orbit_class": {
            "orbit_class_type": "APO",
            "orbit_class_description": "Near-Earth asteroid orbits which cross the Earth’s orbit similar to that of 1862 Apollo",
            "orbit_class_range": "a (semi-major axis) > 1.0 AU; q (perihelion) < 1.017 AU"
        }
    },
    "is_sentry_object": false
}